,ID,City,State,Latitude,Longitude,PlaceName,PlaceAddress,PlaceRating,PlaceLatitude,PlaceLongitude
0,1,Belton,Missouri,38.8119527,-94.5318982,Chinese Palace Restaurant,"10136 W 119th St, Overland Park",4.2,38.9141081,-94.7026781
1,2,Belton,Missouri,38.8119527,-94.5318982,China One Express,"11176 Antioch Rd, Overland Park",3.2,38.925203,-94.6874809
2,3,Belton,Missouri,38.8119527,-94.5318982,Joy Wok,"11920 Metcalf Ave, Overland Park",3.9,38.9117877,-94.66822160000001
3,4,Belton,Missouri,38.8119527,-94.5318982,China King,"3634 W 135th St, Overland Park",4.5,38.884138,-94.626852
4,5,Belton,Missouri,38.8119527,-94.5318982,China Dragon,"529 E Red Bridge Rd, Kansas City",3.8,38.9253199,-94.58536169999999
5,6,Gardner,Kansas,38.8108408,-94.9271868,China Buffet,"2030 E Santa Fe St, Olathe",3.9,38.885063,-94.7807514
6,7,Gardner,Kansas,38.8108408,-94.9271868,Tea Garden,"12755 S Mur-Len Rd, Olathe",4.4,38.8973966,-94.7785061
7,8,Gardner,Kansas,38.8108408,-94.9271868,Master Wok,"14947 W 119th St, Olathe",4.4,38.911492,-94.7593323
8,9,Gardner,Kansas,38.8108408,-94.9271868,Golden Palace Chinese Restaurant,"1711 S Mur-Len Rd, Olathe",4.4,38.8560624,-94.78059209999999
9,10,Gardner,Kansas,38.8108408,-94.9271868,Asian Pearl Restaurant,"9532, 18138 W 119th St, Olathe",4.1,38.913049,-94.795692
10,11,Gladstone,Missouri,39.2038918,-94.554677,Bo Lings,"20 E 5th St, Kansas City",3.9,39.1086335,-94.58239359999999
11,12,Gladstone,Missouri,39.2038918,-94.554677,Tao Tao,"4308, 1300 Minnesota Ave, Kansas City",4.5,39.1156738,-94.64338579999999
12,13,Gladstone,Missouri,39.2038918,-94.554677,Green River Chinese Restaurant,"2120 E 12th St, Kansas City",3.8,39.099462,-94.556524
13,14,Gladstone,Missouri,39.2038918,-94.554677,Iron Wok Chinese Restaurant,"6411 NW 72nd St, Kansas City",4.2,39.2246702,-94.6525826
14,15,Gladstone,Missouri,39.2038918,-94.554677,China Wok,"6048 NW Barry Rd, Kansas City",4.1,39.2491441,-94.6505614
15,16,Grandview,Missouri,38.8858407,-94.5330096,Chinese Palace Restaurant,"10136 W 119th St, Overland Park",4.2,38.9141081,-94.7026781
16,17,Grandview,Missouri,38.8858407,-94.5330096,China Rose Chinese Restaurant,"9536 Antioch Rd, Overland Park",4.5,38.9553569,-94.6869964
17,18,Grandview,Missouri,38.8858407,-94.5330096,Jasmine Garden Chinese Restaurant,"8912 W 95th St, Overland Park",4.6,38.9572893,-94.689105
18,19,Grandview,Missouri,38.8858407,-94.5330096,Jen Jens Authentic Chinese Restaurant,"9066 Metcalf Ave, Overland Park",4.1,38.964768,-94.67006099999999
19,20,Grandview,Missouri,38.8858407,-94.5330096,ABC Cafe,"10001 W 87th St, Overland Park",4.7,38.970721,-94.70171099999999
20,21,Independence,Missouri,39.0911161,-94.41550679999999,Lao Peking Chinese Restaurant,"1020 S Sterling Ave A, Independence",3.9,39.09637,-94.44592100000001
21,22,Independence,Missouri,39.0911161,-94.41550679999999,New Mandarin House Chinese Restaurant,"1643 West 23rd St S, Independence",3.8,39.0796353,-94.4369607
22,23,Independence,Missouri,39.0911161,-94.41550679999999,China Town,"9440 E State Rte 350, Raytown",4.1,38.99285340000001,-94.46954439999999
23,24,Independence,Missouri,39.0911161,-94.41550679999999,Mama Garden,"4400 S Noland Rd, Independence",4.0,39.040232,-94.415964
24,25,Independence,Missouri,39.0911161,-94.41550679999999,Golden Rice Chinese Restaurant,"1435 S Noland Rd, Independence",4.0,39.07382860000001,-94.4135503
25,26,Kansas City,Kansas,39.11553139999999,-94.62678729999999,Jade Bowl Chinese Restaurant,"8881 W 75th St, Overland Park",4.0,38.9924751,-94.6888827
26,27,Kansas City,Kansas,39.11553139999999,-94.62678729999999,Dragon Inn,"7500 W 80th St, Overland Park",4.4,38.9841552,-94.672522
27,28,Kansas City,Kansas,39.11553139999999,-94.62678729999999,Sang Sang Asian Express,"10904 W 75th Terrace, Shawnee",4.5,38.9932629,-94.7121147
28,29,Kansas City,Kansas,39.11553139999999,-94.62678729999999,Blue Koi Noodles & Dumplings,"1803 W 39th St, Kansas City",4.6,39.057174,-94.606402
29,30,Kansas City,Kansas,39.11553139999999,-94.62678729999999,Pine & Bamboo Garden,"10915 Shawnee Mission Pkwy, Shawnee",4.4,39.0143893,-94.7129751
30,31,Kansas City,Missouri,39.0997265,-94.5785667,Jen Jens Authentic Chinese Restaurant,"9066 Metcalf Ave, Overland Park",4.1,38.964768,-94.67006099999999
31,32,Kansas City,Missouri,39.0997265,-94.5785667,ABC Cafe,"10001 W 87th St, Overland Park",4.7,38.970721,-94.70171099999999
32,33,Kansas City,Missouri,39.0997265,-94.5785667,Jade Bowl Chinese Restaurant,"8881 W 75th St, Overland Park",4.0,38.9924751,-94.6888827
33,34,Kansas City,Missouri,39.0997265,-94.5785667,Dragon Inn,"7500 W 80th St, Overland Park",4.4,38.9841552,-94.672522
34,35,Kansas City,Missouri,39.0997265,-94.5785667,Moon Wok,"12251 W 87th St Pkwy, Lenexa",4.4,38.970268,-94.727471
35,36,Leawood,Kansas,38.966673,-94.6169012,Chinese Palace Restaurant,"10136 W 119th St, Overland Park",4.2,38.9141081,-94.7026781
36,37,Leawood,Kansas,38.966673,-94.6169012,Asian House restaurant,"11729 College Blvd, Overland Park",4.5,38.9265932,-94.7216699
37,38,Leawood,Kansas,38.966673,-94.6169012,China Inn Restaurant,"13412 College Blvd, Overland Park",4.2,38.9290207,-94.7414002
38,39,Leawood,Kansas,38.966673,-94.6169012,Joy Food,"11920 W 119th St, Overland Park",3.5,38.913342,-94.725139
39,40,Leawood,Kansas,38.966673,-94.6169012,China One Express,"11176 Antioch Rd, Overland Park",3.2,38.925203,-94.6874809
40,41,Lee's Summit,Missouri,38.9108408,-94.3821724,China Dragon J Chinese Restaurant,"436 SW Ward Rd, Lee's Summit",3.7,38.9083746,-94.3973898
41,42,Lee's Summit,Missouri,38.9108408,-94.3821724,China King,"305 NE SE Todd George Pkwy, Lee's Summit",4.5,38.9179002,-94.33818869999999
42,43,Lee's Summit,Missouri,38.9108408,-94.3821724,Aikou Chinese Restaurant,"608 Rte 291, Lee's Summit",4.0,38.9226783,-94.3616874
43,44,Lee's Summit,Missouri,38.9108408,-94.3821724,Legend of Asia,"1853 SW, MO-7, Blue Springs",4.2,38.9975579,-94.27391229999999
44,45,Lee's Summit,Missouri,38.9108408,-94.3821724,Lucky Wok,"3536 SW Market St, Lee's Summit",4.5,38.8543168,-94.3798451
45,46,Lenexa,Kansas,38.9536174,-94.73357089999999,Asian House restaurant,"11729 College Blvd, Overland Park",4.5,38.9265932,-94.7216699
46,47,Lenexa,Kansas,38.9536174,-94.73357089999999,Chinese Palace Restaurant,"10136 W 119th St, Overland Park",4.2,38.9141081,-94.7026781
47,48,Lenexa,Kansas,38.9536174,-94.73357089999999,China Inn Restaurant,"13412 College Blvd, Overland Park",4.2,38.9290207,-94.7414002
48,49,Lenexa,Kansas,38.9536174,-94.73357089999999,Joy Food,"11920 W 119th St, Overland Park",3.5,38.913342,-94.725139
49,50,Lenexa,Kansas,38.9536174,-94.73357089999999,China One Express,"11176 Antioch Rd, Overland Park",3.2,38.925203,-94.6874809
50,51,Liberty,Missouri,39.2461138,-94.4191177,Lucky Dragon Chinese Restaurant,"3514, 520 Armour Rd, North Kansas City",3.9,39.142814,-94.573923
51,52,Liberty,Missouri,39.2461138,-94.4191177,New China Star Restaurant,"502 NW Englewood Rd, Kansas City",4.1,39.1972271,-94.58692339999999
52,53,Liberty,Missouri,39.2461138,-94.4191177,Hunan Garden,"6409 N Prospect Ave, Gladstone",4.6,39.2100796,-94.5474825
53,54,Liberty,Missouri,39.2461138,-94.4191177,Old Wok,"8702 NE Flintlock Rd, Kansas City",4.2,39.2476899,-94.4660518
54,55,Liberty,Missouri,39.2461138,-94.4191177,Chinese Garden Restaurant,"405 US-69, Kansas City",4.5,39.20045959999999,-94.496415
55,56,Merriam,Kansas,39.0236165,-94.6935701,Asian House restaurant,"11729 College Blvd, Overland Park",4.5,38.9265932,-94.7216699
56,57,Merriam,Kansas,39.0236165,-94.6935701,Chinese Palace Restaurant,"10136 W 119th St, Overland Park",4.2,38.9141081,-94.7026781
57,58,Merriam,Kansas,39.0236165,-94.6935701,China Inn Restaurant,"13412 College Blvd, Overland Park",4.2,38.9290207,-94.7414002
58,59,Merriam,Kansas,39.0236165,-94.6935701,Joy Food,"11920 W 119th St, Overland Park",3.5,38.913342,-94.725139
59,60,Merriam,Kansas,39.0236165,-94.6935701,China One Express,"11176 Antioch Rd, Overland Park",3.2,38.925203,-94.6874809
60,61,Mission,Kansas,39.0277832,-94.6557914,Chinese Palace Restaurant,"10136 W 119th St, Overland Park",4.2,38.9141081,-94.7026781
61,62,Mission,Kansas,39.0277832,-94.6557914,Asian House restaurant,"11729 College Blvd, Overland Park",4.5,38.9265932,-94.7216699
62,63,Mission,Kansas,39.0277832,-94.6557914,China Inn Restaurant,"13412 College Blvd, Overland Park",4.2,38.9290207,-94.7414002
63,64,Mission,Kansas,39.0277832,-94.6557914,Joy Food,"11920 W 119th St, Overland Park",3.5,38.913342,-94.725139
64,65,Mission,Kansas,39.0277832,-94.6557914,China One Express,"11176 Antioch Rd, Overland Park",3.2,38.925203,-94.6874809
65,66,North Kansas City,Missouri,39.14290810000001,-94.5729781,Blue Koi Noodles & Dumplings,"1803 W 39th St, Kansas City",4.6,39.057174,-94.606402
66,67,North Kansas City,Missouri,39.14290810000001,-94.5729781,Pine & Bamboo Garden,"10915 Shawnee Mission Pkwy, Shawnee",4.4,39.0143893,-94.7129751
67,68,North Kansas City,Missouri,39.14290810000001,-94.5729781,KIN LIN,"314 E 51st St, Kansas City",3.9,39.0349456,-94.58347429999999
68,69,North Kansas City,Missouri,39.14290810000001,-94.5729781,China Garden Buffet,"5860 Antioch Rd, Shawnee Mission",3.7,39.0238695,-94.68715660000001
69,70,North Kansas City,Missouri,39.14290810000001,-94.5729781,Bo Lings,"4701 Jefferson St, Kansas City",4.1,39.0420087,-94.5944608
70,71,Olathe,Kansas,38.8813958,-94.81912849999999,Chinese Palace Restaurant,"10136 W 119th St, Overland Park",4.2,38.9141081,-94.7026781
71,72,Olathe,Kansas,38.8813958,-94.81912849999999,China Inn Restaurant,"13412 College Blvd, Overland Park",4.2,38.9290207,-94.7414002
72,73,Olathe,Kansas,38.8813958,-94.81912849999999,Asian House restaurant,"11729 College Blvd, Overland Park",4.5,38.9265932,-94.7216699
73,74,Olathe,Kansas,38.8813958,-94.81912849999999,Joy Food,"11920 W 119th St, Overland Park",3.5,38.913342,-94.725139
74,75,Olathe,Kansas,38.8813958,-94.81912849999999,China One Express,"11176 Antioch Rd, Overland Park",3.2,38.925203,-94.6874809
75,76,Overland Park,Kansas,38.9822282,-94.6707917,Asian House restaurant,"11729 College Blvd, Overland Park",4.5,38.9265932,-94.7216699
76,77,Overland Park,Kansas,38.9822282,-94.6707917,Chinese Palace Restaurant,"10136 W 119th St, Overland Park",4.2,38.9141081,-94.7026781
77,78,Overland Park,Kansas,38.9822282,-94.6707917,China Inn Restaurant,"13412 College Blvd, Overland Park",4.2,38.9290207,-94.7414002
78,79,Overland Park,Kansas,38.9822282,-94.6707917,Joy Food,"11920 W 119th St, Overland Park",3.5,38.913342,-94.725139
79,80,Overland Park,Kansas,38.9822282,-94.6707917,China One Express,"11176 Antioch Rd, Overland Park",3.2,38.925203,-94.6874809
80,81,Prairie Village,Kansas,38.9916726,-94.6335684,Asian House restaurant,"11729 College Blvd, Overland Park",4.5,38.9265932,-94.7216699
81,82,Prairie Village,Kansas,38.9916726,-94.6335684,Chinese Palace Restaurant,"10136 W 119th St, Overland Park",4.2,38.9141081,-94.7026781
82,83,Prairie Village,Kansas,38.9916726,-94.6335684,China Inn Restaurant,"13412 College Blvd, Overland Park",4.2,38.9290207,-94.7414002
83,84,Prairie Village,Kansas,38.9916726,-94.6335684,Joy Food,"11920 W 119th St, Overland Park",3.5,38.913342,-94.725139
84,85,Prairie Village,Kansas,38.9916726,-94.6335684,China One Express,"11176 Antioch Rd, Overland Park",3.2,38.925203,-94.6874809
85,86,Raytown,Missouri,39.0086171,-94.46356379999999,China King,"3634 W 135th St, Overland Park",4.5,38.884138,-94.626852
86,87,Raytown,Missouri,39.0086171,-94.46356379999999,Blue Koi Noodles & Dumplings,"1803 W 39th St, Kansas City",4.6,39.057174,-94.606402
87,88,Raytown,Missouri,39.0086171,-94.46356379999999,Red Snapper,"8430 Ward Pkwy, Kansas City",4.4,38.975471,-94.60744199999999
88,89,Raytown,Missouri,39.0086171,-94.46356379999999,Princess Garden,"8906 Wornall Rd, Kansas City",4.4,38.9662812,-94.5959886
89,90,Raytown,Missouri,39.0086171,-94.46356379999999,KIN LIN,"314 E 51st St, Kansas City",3.9,39.0349456,-94.58347429999999
90,91,Shawnee,Kansas,39.02284849999999,-94.7151865,Chinese Palace Restaurant,"10136 W 119th St, Overland Park",4.2,38.9141081,-94.7026781
91,92,Shawnee,Kansas,39.02284849999999,-94.7151865,Asian House restaurant,"11729 College Blvd, Overland Park",4.5,38.9265932,-94.7216699
92,93,Shawnee,Kansas,39.02284849999999,-94.7151865,China Inn Restaurant,"13412 College Blvd, Overland Park",4.2,38.9290207,-94.7414002
93,94,Shawnee,Kansas,39.02284849999999,-94.7151865,Joy Food,"11920 W 119th St, Overland Park",3.5,38.913342,-94.725139
94,95,Shawnee,Kansas,39.02284849999999,-94.7151865,China One Express,"11176 Antioch Rd, Overland Park",3.2,38.925203,-94.6874809
